{
  "norad_id": 66313,
  "name": "YAOGAN-46",
  "history": [
    {
      "epoch": "2026-03-28T19:43:50.389536Z",
      "apogee_km": 7501.846129331417,
      "perigee_km": 7491.727979713897,
      "latitude_deg": 8.39090429251561e-06,
      "longitude_deg": -94.90961692324781,
      "height_km": 7490.906367770974,
      "semi_major_axis_km": 13874.924054522657,
      "eccentricity": 0.00036462,
      "inclination_deg": 20.0833,
      "raan_deg": 27.2904,
      "arg_perigee_deg": 22.6067,
      "mean_anomaly_deg": 337.4239,
      "mean_motion_rev_day": 5.311985
    },
    {
      "epoch": "2026-03-29T00:14:45.995712Z",
      "apogee_km": 7501.852754455534,
      "perigee_km": 7491.7212849363505,
      "latitude_deg": 2.6502407304027014e-05,
      "longitude_deg": -162.94278302994533,
      "height_km": 7490.911098271404,
      "semi_major_axis_km": 13874.924019695942,
      "eccentricity": 0.0003651,
      "inclination_deg": 20.0833,
      "raan_deg": 27.1744,
      "arg_perigee_deg": 22.9278,
      "mean_anomaly_deg": 337.103,
      "mean_motion_rev_day": 5.31198502
    },
    {
      "epoch": "2026-03-30T03:20:19.613760Z",
      "apogee_km": 7501.874605939119,
      "perigee_km": 7491.698736918493,
      "latitude_deg": -1.108082423665534e-05,
      "longitude_deg": 148.8576542673011,
      "height_km": 7490.946710072178,
      "semi_major_axis_km": 13874.923671428805,
      "eccentricity": 0.0003667,
      "inclination_deg": 20.0835,
      "raan_deg": 26.4783,
      "arg_perigee_deg": 24.5202,
      "mean_anomaly_deg": 335.511,
      "mean_motion_rev_day": 5.31198522
    },
    {
      "epoch": "2026-03-30T03:20:19.614624Z",
      "apogee_km": 7501.874883437592,
      "perigee_km": 7491.698459420019,
      "latitude_deg": -1.1407454680928119e-05,
      "longitude_deg": 148.85764976659866,
      "height_km": 7490.946457512325,
      "semi_major_axis_km": 13874.923671428805,
      "eccentricity": 0.00036672,
      "inclination_deg": 20.0835,
      "raan_deg": 26.4783,
      "arg_perigee_deg": 24.5202,
      "mean_anomaly_deg": 335.511,
      "mean_motion_rev_day": 5.31198522
    },
    {
      "epoch": "2026-03-30T07:51:15.219072Z",
      "apogee_km": 7501.878039830545,
      "perigee_km": 7491.695233373642,
      "latitude_deg": 2.457066542164261e-06,
      "longitude_deg": 80.82443845898004,
      "height_km": 7490.952472555992,
      "semi_major_axis_km": 13874.923636602092,
      "eccentricity": 0.00036695,
      "inclination_deg": 20.0836,
      "raan_deg": 26.3623,
      "arg_perigee_deg": 24.7644,
      "mean_anomaly_deg": 335.2669,
      "mean_motion_rev_day": 5.31198524
    },
    {
      "epoch": "2026-03-30T21:24:02.012544Z",
      "apogee_km": 7501.889571610384,
      "perigee_km": 7491.682900579451,
      "latitude_deg": -9.885867877601202e-06,
      "longitude_deg": -123.27536926046925,
      "height_km": 7490.971482705533,
      "semi_major_axis_km": 13874.923236094917,
      "eccentricity": 0.00036781,
      "inclination_deg": 20.0837,
      "raan_deg": 26.0142,
      "arg_perigee_deg": 25.5705,
      "mean_anomaly_deg": 334.461,
      "mean_motion_rev_day": 5.31198547
    },
    {
      "epoch": "2026-03-31T19:58:40.024416Z",
      "apogee_km": 7501.9044339800375,
      "perigee_km": 7491.667515809159,
      "latitude_deg": -1.264586803655007e-05,
      "longitude_deg": -103.44167378458518,
      "height_km": 7491.009412070187,
      "semi_major_axis_km": 13874.922974894598,
      "eccentricity": 0.0003689,
      "inclination_deg": 20.0839,
      "raan_deg": 25.4341,
      "arg_perigee_deg": 26.8955,
      "mean_anomaly_deg": 333.1364,
      "mean_motion_rev_day": 5.31198562
    },
    {
      "epoch": "2026-04-01T09:31:26.828256Z",
      "apogee_km": 7501.9138328699055,
      "perigee_km": 7491.657490038558,
      "latitude_deg": -4.605685699202661e-06,
      "longitude_deg": 52.45869158979487,
      "height_km": 7491.0310238051425,
      "semi_major_axis_km": 13874.922661454231,
      "eccentricity": 0.0003696,
      "inclination_deg": 20.084,
      "raan_deg": 25.0861,
      "arg_perigee_deg": 27.6482,
      "mean_anomaly_deg": 332.384,
      "mean_motion_rev_day": 5.3119858
    },
    {
      "epoch": "2026-04-02T12:37:00.499008Z",
      "apogee_km": 7501.930883432745,
      "perigee_km": 7491.641240489996,
      "latitude_deg": -5.127662660974849e-06,
      "longitude_deg": 4.259195781049512,
      "height_km": 7491.084707621494,
      "semi_major_axis_km": 13874.92306196137,
      "eccentricity": 0.0003708,
      "inclination_deg": 20.0843,
      "raan_deg": 24.39,
      "arg_perigee_deg": 29.2498,
      "mean_anomaly_deg": 330.7832,
      "mean_motion_rev_day": 5.31198557
    },
    {
      "epoch": "2026-04-02T21:38:51.703584Z",
      "apogee_km": 7501.937871935076,
      "perigee_km": 7491.633799240456,
      "latitude_deg": 1.6826761144491535e-05,
      "longitude_deg": -131.80706517224243,
      "height_km": 7491.101337529926,
      "semi_major_axis_km": 13874.922835587766,
      "eccentricity": 0.00037132,
      "inclination_deg": 20.0843,
      "raan_deg": 24.158,
      "arg_perigee_deg": 29.7756,
      "mean_anomaly_deg": 330.2578,
      "mean_motion_rev_day": 5.3119857
    },
    {
      "epoch": "2026-04-03T20:13:29.688672Z",
      "apogee_km": 7501.958644603367,
      "perigee_km": 7491.610728009721,
      "latitude_deg": 2.6837651588774873e-05,
      "longitude_deg": -111.97267946715223,
      "height_km": 7491.145066154195,
      "semi_major_axis_km": 13874.921686306545,
      "eccentricity": 0.0003729,
      "inclination_deg": 20.0845,
      "raan_deg": 23.5779,
      "arg_perigee_deg": 31.1766,
      "mean_anomaly_deg": 328.8579,
      "mean_motion_rev_day": 5.31198636
    },
    {
      "epoch": "2026-04-04T18:48:07.724736Z",
      "apogee_km": 7501.973576039844,
      "perigee_km": 7491.595134865965,
      "latitude_deg": 3.0280246218442175e-05,
      "longitude_deg": -92.1383205773679,
      "height_km": 7491.1932894939555,
      "semi_major_axis_km": 13874.921355452903,
      "eccentricity": 0.000374,
      "inclination_deg": 20.0847,
      "raan_deg": 22.9978,
      "arg_perigee_deg": 32.4697,
      "mean_anomaly_deg": 327.566,
      "mean_motion_rev_day": 5.31198655
    },
    {
      "epoch": "2026-04-05T08:20:54.624480Z",
      "apogee_km": 7501.984281417687,
      "perigee_km": 7491.586414610086,
      "latitude_deg": -1.6905187406706485e-05,
      "longitude_deg": 63.761978184040416,
      "height_km": 7491.226631572345,
      "semi_major_axis_km": 13874.922348013886,
      "eccentricity": 0.0003747,
      "inclination_deg": 20.0848,
      "raan_deg": 22.6498,
      "arg_perigee_deg": 33.2932,
      "mean_anomaly_deg": 326.7432,
      "mean_motion_rev_day": 5.31198598
    },
    {
      "epoch": "2026-04-05T12:51:50.238432Z",
      "apogee_km": 7501.987073822035,
      "perigee_km": 7491.58365703244,
      "latitude_deg": 2.531615624577608e-05,
      "longitude_deg": -4.271105169686696,
      "height_km": 7491.237056984677,
      "semi_major_axis_km": 13874.922365427237,
      "eccentricity": 0.0003749,
      "inclination_deg": 20.0849,
      "raan_deg": 22.5337,
      "arg_perigee_deg": 33.548,
      "mean_anomaly_deg": 326.4888,
      "mean_motion_rev_day": 5.31198597
    },
    {
      "epoch": "2026-04-06T02:24:37.066464Z",
      "apogee_km": 7501.998294479329,
      "perigee_km": 7491.572122934817,
      "latitude_deg": 2.1626156171422033e-05,
      "longitude_deg": 151.62967583328725,
      "height_km": 7491.268886349439,
      "semi_major_axis_km": 13874.922208707072,
      "eccentricity": 0.00037572,
      "inclination_deg": 20.085,
      "raan_deg": 22.1857,
      "arg_perigee_deg": 34.3639,
      "mean_anomaly_deg": 325.6738,
      "mean_motion_rev_day": 5.31198606
    },
    {
      "epoch": "2026-04-07T05:30:10.693152Z",
      "apogee_km": 7502.017368531579,
      "perigee_km": 7491.551237894139,
      "latitude_deg": -1.1842903064029413e-07,
      "longitude_deg": 103.43140544781019,
      "height_km": 7491.333418104741,
      "semi_major_axis_km": 13874.92130321286,
      "eccentricity": 0.00037716,
      "inclination_deg": 20.0852,
      "raan_deg": 21.4897,
      "arg_perigee_deg": 35.9208,
      "mean_anomaly_deg": 324.1187,
      "mean_motion_rev_day": 5.31198658
    },
    {
      "epoch": "2026-04-08T08:35:44.388960Z",
      "apogee_km": 7502.038893300211,
      "perigee_km": 7491.530305179379,
      "latitude_deg": 1.554990423722693e-05,
      "longitude_deg": 55.23296551075115,
      "height_km": 7491.40645195556,
      "semi_major_axis_km": 13874.921599239795,
      "eccentricity": 0.00037869,
      "inclination_deg": 20.0854,
      "raan_deg": 20.7937,
      "arg_perigee_deg": 37.5583,
      "mean_anomaly_deg": 322.4832,
      "mean_motion_rev_day": 5.31198641
    },
    {
      "epoch": "2026-04-09T02:39:26.807616Z",
      "apogee_km": 7502.053980293374,
      "perigee_km": 7491.514312692075,
      "latitude_deg": -6.110229863623533e-06,
      "longitude_deg": 143.10062804030264,
      "height_km": 7491.454961322532,
      "semi_major_axis_km": 13874.921146492723,
      "eccentricity": 0.00037981,
      "inclination_deg": 20.0855,
      "raan_deg": 20.3296,
      "arg_perigee_deg": 38.637,
      "mean_anomaly_deg": 321.4057,
      "mean_motion_rev_day": 5.31198667
    },
    {
      "epoch": "2026-04-10T05:44:58.688160Z",
      "apogee_km": 7501.914859436824,
      "perigee_km": 7491.475435728983,
      "latitude_deg": 2.38091590322242e-06,
      "longitude_deg": 94.90984495212189,
      "height_km": 7491.47982811588,
      "semi_major_axis_km": 13874.832147582903,
      "eccentricity": 0.0003762,
      "inclination_deg": 20.0857,
      "raan_deg": 19.6339,
      "arg_perigee_deg": 39.9306,
      "mean_anomaly_deg": 320.1133,
      "mean_motion_rev_day": 5.31203778
    },
    {
      "epoch": "2026-04-11T04:19:35.969088Z",
      "apogee_km": 7501.936612346012,
      "perigee_km": 7491.455563431419,
      "latitude_deg": 1.168376920026303e-05,
      "longitude_deg": 114.7472614372785,
      "height_km": 7491.534412640537,
      "semi_major_axis_km": 13874.833087888715,
      "eccentricity": 0.0003777,
      "inclination_deg": 20.0858,
      "raan_deg": 19.0537,
      "arg_perigee_deg": 41.1033,
      "mean_anomaly_deg": 318.9418,
      "mean_motion_rev_day": 5.31203724
    },
    {
      "epoch": "2026-04-13T01:28:50.526624Z",
      "apogee_km": 7501.971932629921,
      "perigee_km": 7491.4242829809655,
      "latitude_deg": -7.962729918192489e-07,
      "longitude_deg": 154.42201783951944,
      "height_km": 7491.674146622733,
      "semi_major_axis_km": 13874.835107805442,
      "eccentricity": 0.0003801,
      "inclination_deg": 20.0861,
      "raan_deg": 17.8938,
      "arg_perigee_deg": 43.7335,
      "mean_anomaly_deg": 316.3134,
      "mean_motion_rev_day": 5.31203608
    },
    {
      "epoch": "2026-04-14T04:34:23.206368Z",
      "apogee_km": 7501.9874039851375,
      "perigee_km": 7491.409229539638,
      "latitude_deg": -3.7400805163867964e-06,
      "longitude_deg": 106.22630453156896,
      "height_km": 7491.779439872198,
      "semi_major_axis_km": 13874.835316762386,
      "eccentricity": 0.0003812,
      "inclination_deg": 20.0864,
      "raan_deg": 17.1973,
      "arg_perigee_deg": 45.5315,
      "mean_anomaly_deg": 314.5162,
      "mean_motion_rev_day": 5.31203596
    },
    {
      "epoch": "2026-04-15T12:10:51.348000Z",
      "apogee_km": 7502.013957789492,
      "perigee_km": 7491.383058823028,
      "latitude_deg": 1.870310412436049e-05,
      "longitude_deg": -10.001486018626307,
      "height_km": 7491.886242537526,
      "semi_major_axis_km": 13874.83550830626,
      "eccentricity": 0.0003831,
      "inclination_deg": 20.0867,
      "raan_deg": 16.3853,
      "arg_perigee_deg": 47.4017,
      "mean_anomaly_deg": 312.6467,
      "mean_motion_rev_day": 5.31203585
    }
  ]
}